[
    {
        "OBJECT_NAME": "SHIJIAN-16 (SJ-16)",
        "OBJECT_ID": "2013-057A",
        "EPOCH": "2026-05-23T20:11:06.434880",
        "MEAN_MOTION": 14.92539743,
        "ECCENTRICITY": 0.0016975,
        "INCLINATION": 74.9736,
        "RA_OF_ASC_NODE": 42.7926,
        "ARG_OF_PERICENTER": 286.7418,
        "MEAN_ANOMALY": 73.1908,
        "EPHEMERIS_TYPE": 0,
        "CLASSIFICATION_TYPE": "U",
        "NORAD_CAT_ID": 39358,
        "ELEMENT_SET_NO": 999,
        "REV_AT_EPOCH": 68271,
        "BSTAR": 8.0146e-05,
        "MEAN_MOTION_DOT": 7.96e-06,
        "MEAN_MOTION_DDOT": 0
    },
    {
        "OBJECT_NAME": "SL-4 R/B",
        "OBJECT_ID": "2014-021B",
        "EPOCH": "2026-05-23T19:41:02.796000",
        "MEAN_MOTION": 15.41330845,
        "ECCENTRICITY": 0.0092101,
        "INCLINATION": 51.6069,
        "RA_OF_ASC_NODE": 330.0942,
        "ARG_OF_PERICENTER": 17.6103,
        "MEAN_ANOMALY": 342.8039,
        "EPHEMERIS_TYPE": 0,
        "CLASSIFICATION_TYPE": "U",
        "NORAD_CAT_ID": 39679,
        "ELEMENT_SET_NO": 999,
        "REV_AT_EPOCH": 66785,
        "BSTAR": 0.00019343,
        "MEAN_MOTION_DOT": 9.082e-05,
        "MEAN_MOTION_DDOT": 0
    },
    {
        "OBJECT_NAME": "ALOS-2",
        "OBJECT_ID": "2014-029A",
        "EPOCH": "2026-05-23T20:36:54.340992",
        "MEAN_MOTION": 14.79463434,
        "ECCENTRICITY": 0.0001599,
        "INCLINATION": 97.9222,
        "RA_OF_ASC_NODE": 241.3713,
        "ARG_OF_PERICENTER": 90.4188,
        "MEAN_ANOMALY": 269.7207,
        "EPHEMERIS_TYPE": 0,
        "CLASSIFICATION_TYPE": "U",
        "NORAD_CAT_ID": 39766,
        "ELEMENT_SET_NO": 999,
        "REV_AT_EPOCH": 64798,
        "BSTAR": -7.0051e-06,
        "MEAN_MOTION_DOT": -1.04e-06,
        "MEAN_MOTION_DDOT": 0
    },
    {
        "OBJECT_NAME": "ASTRO-H (HITOMI)",
        "OBJECT_ID": "2016-012A",
        "EPOCH": "2026-05-23T15:35:34.393632",
        "MEAN_MOTION": 15.10396299,
        "ECCENTRICITY": 0.000956,
        "INCLINATION": 30.9988,
        "RA_OF_ASC_NODE": 232.6477,
        "ARG_OF_PERICENTER": 6.1727,
        "MEAN_ANOMALY": 353.9027,
        "EPHEMERIS_TYPE": 0,
        "CLASSIFICATION_TYPE": "U",
        "NORAD_CAT_ID": 41337,
        "ELEMENT_SET_NO": 999,
        "REV_AT_EPOCH": 56357,
        "BSTAR": 9.2437e-05,
        "MEAN_MOTION_DOT": 1.652e-05,
        "MEAN_MOTION_DDOT": 0
    },
    {
        "OBJECT_NAME": "HXMT (HUIYAN)",
        "OBJECT_ID": "2017-034A",
        "EPOCH": "2026-05-23T20:38:38.986080",
        "MEAN_MOTION": 15.1822313,
        "ECCENTRICITY": 0.003185,
        "INCLINATION": 43.0149,
        "RA_OF_ASC_NODE": 318.479,
        "ARG_OF_PERICENTER": 348.4286,
        "MEAN_ANOMALY": 11.5828,
        "EPHEMERIS_TYPE": 0,
        "CLASSIFICATION_TYPE": "U",
        "NORAD_CAT_ID": 42758,
        "ELEMENT_SET_NO": 999,
        "REV_AT_EPOCH": 49396,
        "BSTAR": 0.00018455,
        "MEAN_MOTION_DOT": 3.65e-05,
        "MEAN_MOTION_DDOT": 0
    },
    {
        "OBJECT_NAME": "SAOCOM 1A",
        "OBJECT_ID": "2018-076A",
        "EPOCH": "2026-05-23T19:58:29.957952",
        "MEAN_MOTION": 14.82155259,
        "ECCENTRICITY": 0.0001587,
        "INCLINATION": 97.8891,
        "RA_OF_ASC_NODE": 330.9348,
        "ARG_OF_PERICENTER": 82.8975,
        "MEAN_ANOMALY": 277.2418,
        "EPHEMERIS_TYPE": 0,
        "CLASSIFICATION_TYPE": "U",
        "NORAD_CAT_ID": 43641,
        "ELEMENT_SET_NO": 999,
        "REV_AT_EPOCH": 41249,
        "BSTAR": 9.6086e-05,
        "MEAN_MOTION_DOT": 7.13e-06,
        "MEAN_MOTION_DDOT": 0
    },
    {
        "OBJECT_NAME": "H-2A R/B",
        "OBJECT_ID": "2018-084L",
        "EPOCH": "2026-05-23T15:23:29.608224",
        "MEAN_MOTION": 15.44110347,
        "ECCENTRICITY": 0.002479,
        "INCLINATION": 98.8613,
        "RA_OF_ASC_NODE": 17.1858,
        "ARG_OF_PERICENTER": 121.3739,
        "MEAN_ANOMALY": 238.9935,
        "EPHEMERIS_TYPE": 0,
        "CLASSIFICATION_TYPE": "U",
        "NORAD_CAT_ID": 43682,
        "ELEMENT_SET_NO": 999,
        "REV_AT_EPOCH": 41733,
        "BSTAR": 0.00032809,
        "MEAN_MOTION_DOT": 0.00015074,
        "MEAN_MOTION_DDOT": 0
    },
    {
        "OBJECT_NAME": "SAOCOM 1B",
        "OBJECT_ID": "2020-059A",
        "EPOCH": "2026-05-23T19:06:15.370272",
        "MEAN_MOTION": 14.82148252,
        "ECCENTRICITY": 0.0001452,
        "INCLINATION": 97.8892,
        "RA_OF_ASC_NODE": 329.9929,
        "ARG_OF_PERICENTER": 84.4663,
        "MEAN_ANOMALY": 275.6715,
        "EPHEMERIS_TYPE": 0,
        "CLASSIFICATION_TYPE": "U",
        "NORAD_CAT_ID": 46265,
        "ELEMENT_SET_NO": 999,
        "REV_AT_EPOCH": 30987,
        "BSTAR": 4.429e-05,
        "MEAN_MOTION_DOT": 3e-06,
        "MEAN_MOTION_DDOT": 0
    },
    {
        "OBJECT_NAME": "CSS (TIANHE)",
        "OBJECT_ID": "2021-035A",
        "EPOCH": "2026-05-23T20:18:10.408320",
        "MEAN_MOTION": 15.59764195,
        "ECCENTRICITY": 0.0011089,
        "INCLINATION": 41.4681,
        "RA_OF_ASC_NODE": 110.018,
        "ARG_OF_PERICENTER": 269.2332,
        "MEAN_ANOMALY": 90.7236,
        "EPHEMERIS_TYPE": 0,
        "CLASSIFICATION_TYPE": "U",
        "NORAD_CAT_ID": 48274,
        "ELEMENT_SET_NO": 999,
        "REV_AT_EPOCH": 28936,
        "BSTAR": 0.00018668,
        "MEAN_MOTION_DOT": 0.00015119,
        "MEAN_MOTION_DDOT": 0
    },
    {
        "OBJECT_NAME": "COSMOS 2550",
        "OBJECT_ID": "2021-056A",
        "EPOCH": "2026-05-23T19:57:01.162944",
        "MEAN_MOTION": 15.33962316,
        "ECCENTRICITY": 0.000845,
        "INCLINATION": 67.1414,
        "RA_OF_ASC_NODE": 173.5766,
        "ARG_OF_PERICENTER": 265.0029,
        "MEAN_ANOMALY": 95.0161,
        "EPHEMERIS_TYPE": 0,
        "CLASSIFICATION_TYPE": "U",
        "NORAD_CAT_ID": 48865,
        "ELEMENT_SET_NO": 999,
        "REV_AT_EPOCH": 27498,
        "BSTAR": 5.1727e-05,
        "MEAN_MOTION_DOT": 1.517e-05,
        "MEAN_MOTION_DDOT": 0
    },
    {
        "OBJECT_NAME": "CZ-2C R/B",
        "OBJECT_ID": "2022-058K",
        "EPOCH": "2026-05-23T18:55:35.797728",
        "MEAN_MOTION": 15.59917359,
        "ECCENTRICITY": 0.0034945,
        "INCLINATION": 50.1866,
        "RA_OF_ASC_NODE": 290.3022,
        "ARG_OF_PERICENTER": 163.8202,
        "MEAN_ANOMALY": 196.3895,
        "EPHEMERIS_TYPE": 0,
        "CLASSIFICATION_TYPE": "U",
        "NORAD_CAT_ID": 52794,
        "ELEMENT_SET_NO": 999,
        "REV_AT_EPOCH": 22183,
        "BSTAR": 0.00044455,
        "MEAN_MOTION_DOT": 0.00037302,
        "MEAN_MOTION_DDOT": 0
    },
    {
        "OBJECT_NAME": "CZ-2C R/B",
        "OBJECT_ID": "2022-132E",
        "EPOCH": "2026-05-23T17:48:21.913056",
        "MEAN_MOTION": 15.68546048,
        "ECCENTRICITY": 0.001648,
        "INCLINATION": 97.2919,
        "RA_OF_ASC_NODE": 149.7289,
        "ARG_OF_PERICENTER": 159.9924,
        "MEAN_ANOMALY": 200.1987,
        "EPHEMERIS_TYPE": 0,
        "CLASSIFICATION_TYPE": "U",
        "NORAD_CAT_ID": 54039,
        "ELEMENT_SET_NO": 999,
        "REV_AT_EPOCH": 20211,
        "BSTAR": 0.00038656,
        "MEAN_MOTION_DOT": 0.00044056,
        "MEAN_MOTION_DDOT": 0
    }
]