SHIJIAN-16 (SJ-16)      
1 39358U 13057A   26143.84104670  .00000796  00000+0  80146-4 0  9994
2 39358  74.9736  42.7926 0016975 286.7418  73.1908 14.92539743682719
SL-4 R/B                
1 39679U 14021B   26143.82017125  .00009082  00000+0  19343-3 0  9995
2 39679  51.6069 330.0942 0092101  17.6103 342.8039 15.41330845667850
ALOS-2                  
1 39766U 14029A   26143.85896228 -.00000104  00000+0 -70051-5 0  9995
2 39766  97.9222 241.3713 0001599  90.4188 269.7207 14.79463434647981
ASTRO-H (HITOMI)        
1 41337U 16012A   26143.64970363  .00001652  00000+0  92437-4 0  9994
2 41337  30.9988 232.6477 0009560   6.1727 353.9027 15.10396299563571
HXMT (HUIYAN)           
1 42758U 17034A   26143.86017345  .00003650  00000+0  18455-3 0  9990
2 42758  43.0149 318.4790 0031850 348.4286  11.5828 15.18223130493965
SAOCOM 1A               
1 43641U 18076A   26143.83229118  .00000713  00000+0  96086-4 0  9993
2 43641  97.8891 330.9348 0001587  82.8975 277.2418 14.82155259412495
H-2A R/B                
1 43682U 18084L   26143.64131491  .00015074  00000+0  32809-3 0  9990
2 43682  98.8613  17.1858 0024790 121.3739 238.9935 15.44110347417335
SAOCOM 1B               
1 46265U 20059A   26143.79601123  .00000300  00000+0  44290-4 0  9999
2 46265  97.8892 329.9929 0001452  84.4663 275.6715 14.82148252309871
CSS (TIANHE)            
1 48274U 21035A   26143.84595380  .00015119  00000+0  18668-3 0  9992
2 48274  41.4681 110.0180 0011089 269.2332  90.7236 15.59764195289365
COSMOS 2550             
1 48865U 21056A   26143.83126346  .00001517  00000+0  51727-4 0  9993
2 48865  67.1414 173.5766 0008450 265.0029  95.0161 15.33962316274983
CZ-2C R/B               
1 52794U 22058K   26143.78860877  .00037302  00000+0  44455-3 0  9990
2 52794  50.1866 290.3022 0034945 163.8202 196.3895 15.59917359221831
CZ-2C R/B               
1 54039U 22132E   26143.74192029  .00044056  00000+0  38656-3 0  9990
2 54039  97.2919 149.7289 0016480 159.9924 200.1987 15.68546048202118
